OBJECT_NAME,OBJECT_ID,EPOCH,MEAN_MOTION,ECCENTRICITY,INCLINATION,RA_OF_ASC_NODE,ARG_OF_PERICENTER,MEAN_ANOMALY,EPHEMERIS_TYPE,CLASSIFICATION_TYPE,NORAD_CAT_ID,ELEMENT_SET_NO,REV_AT_EPOCH,BSTAR,MEAN_MOTION_DOT,MEAN_MOTION_DDOT
POLYITAN-1,2014-033AJ,2026-07-15T00:58:39.811584,15.34216227,.00079404,98.0932,224.9562,64.6154,295.5908,0,U,40042,999,65786,.34568491E-3,.11373E-3,0
TIGRISAT,2014-033AK,2026-07-15T21:12:14.619456,14.85250731,.00485818,97.7865,346.2444,342.0708,17.8792,0,U,40043,999,64988,.88309404E-4,.717E-5,0
AEROCUBE 6A,2014-033AM,2026-07-15T22:36:45.427680,14.98348152,.00362563,97.7250,3.5917,278.3903,81.3210,0,U,40045,999,65092,.2686847E-3,.3183E-4,0
AEROCUBE 6B,2014-033AN,2026-07-15T21:59:49.443936,14.99801962,.00380824,97.7202,3.4151,267.4918,92.1945,0,U,40046,999,65106,.20882502E-3,.256E-4,0
CANX-4,2014-034C,2026-07-15T02:48:59.289696,14.81311066,.00114247,98.3083,72.4512,283.1173,76.8763,0,U,40055,999,64866,.61209325E-4,.42E-5,0
CANX-5,2014-034D,2026-07-15T10:52:36.323616,14.81328706,.00114138,98.3085,72.8445,282.1246,77.8687,0,U,40056,999,63952,.59894875E-4,.41E-5,0
UKUBE-1,2014-037F,2026-07-15T22:08:06.319104,15.13955912,.00032624,98.4241,203.2234,86.6441,273.5160,0,U,40074,999,65290,.22669768E-3,.4031E-4,0
BRITE-PL2 (HEWELIUSZ),2014-049B,2026-07-15T19:48:49.342176,14.94687962,.00142775,97.9120,309.0513,20.1864,339.9917,0,U,40119,999,64572,.49290879E-4,.476E-5,0
AEROCUBE 5C,2015-058B,2026-07-15T22:26:51.893376,14.91579023,.01323843,64.7657,173.1454,52.1672,309.1334,0,U,40965,999,36994,.16158418E-3,.1741E-4,0
AEROCUBE 7,2015-058C,2026-07-15T04:19:50.877408,14.95913679,.01220529,64.7612,157.1214,50.7559,310.4311,0,U,40966,999,37014,.22456729E-3,.2744E-4,0
FOX-1A (AO-85),2015-058D,2026-07-15T09:19:38.094240,14.91088896,.01323818,64.7725,191.3328,45.7352,315.4532,0,U,40967,999,11777,.15413123E-3,.1629E-4,0
SINOD-D 1,2015-058E,2026-07-15T14:57:07.416000,14.96090937,.01210673,64.7735,169.8489,41.9967,319.0351,0,U,40968,999,12091,.23458403E-3,.2882E-4,0
SNAP-3 ALICE,2015-058G,2026-07-15T21:18:36.232704,15.67357154,.002474,64.7494,4.1689,347.7291,12.3252,0,U,40970,999,12137,.83692925E-3,.93171E-3,0
LMRST-SAT,2015-058H,2026-07-15T10:02:18.870144,14.90704097,.01339193,64.7732,187.6328,47.7261,313.5114,0,U,40971,999,11776,.15033247E-3,.1573E-4,0
SNAP-3 EDDIE,2015-058J,2026-07-15T20:31:01.166304,15.68757584,.00258698,64.7406,354.7889,350.5303,9.5356,0,U,40972,999,12351,.88300439E-3,.104454E-2,0
PROPCUBE 3,2015-058K,2026-07-15T22:04:09.601248,14.94419440,.01258298,64.7672,162.7529,48.7267,312.4601,0,U,40973,999,11909,.19493077E-3,.228E-4,0
BISONSAT,2015-058L,2026-07-15T21:58:52.375872,15.16943409,.00821928,64.7583,80.7043,35.5577,325.0985,0,U,40974,999,11997,.36140172E-3,.7606E-4,0
SNAP-3 JIMI,2015-058M,2026-07-15T22:39:23.383296,15.02615583,.01079178,64.7652,128.7653,44.0491,316.9161,0,U,40975,999,11854,.28151654E-3,.4078E-4,0
PROPCUBE 1 (FLORA),2015-058N,2026-07-15T17:38:14.603136,14.89329619,.01325205,64.7718,206.7504,49.8790,311.3844,0,U,40976,999,12051,.13093257E-3,.1289E-4,0
SINOD-D 3,2015-058P,2026-07-15T16:30:53.025408,14.94176369,.01211031,64.7704,186.8071,46.9407,314.1768,0,U,40977,999,11901,.20105388E-3,.2313E-4,0
RAVAN,2016-067B,2026-07-15T06:34:11.634528,15.57471545,.00022281,97.9845,89.1482,215.7136,144.3969,0,U,41849,999,53206,.46534794E-3,.34156E-3,0
CELTEE 1,2016-067C,2026-07-15T01:21:56.817504,15.19940045,.00023557,98.0635,64.5246,110.5351,249.6135,0,U,41850,999,53011,.13646239E-3,.2855E-4,0
OPTICUBE 04,2016-067D,2026-07-15T20:15:32.829408,15.09773584,.00161253,98.0673,50.6210,25.7263,334.4764,0,U,41851,999,52949,.61906589E-4,.93E-5,0
AEROCUBE 8D,2016-067E,2026-07-15T10:38:18.575520,15.24771509,.0004549,98.0641,68.7664,55.8282,304.3385,0,U,41852,999,53037,.16320115E-3,.3962E-4,0
AEROCUBE 8C,2016-067F,2026-07-15T20:34:27.562944,15.25029505,.00042074,98.0516,66.4030,339.0824,21.0239,0,U,41853,999,53043,.16937363E-3,.4148E-4,0
CORVUS BC2,2017-042X,2026-07-15T16:35:56.691168,15.06458015,.0013404,97.4091,356.9404,21.4439,338.7347,0,U,42846,999,49135,.8400815E-4,.1182E-4,0
CORVUS BC1,2017-042Y,2026-07-15T16:23:40.072416,15.06621102,.00116033,97.4121,357.7647,358.4430,1.6759,0,U,42847,999,49138,.93353002E-4,.1325E-4,0
MAKERSAT 0,2017-073D,2026-07-15T21:48:29.084544,15.33023791,.01054678,97.4576,79.6633,169.7172,190.6262,0,U,43016,999,47086,.31973976E-3,.12107E-3,0
SIRION PATHFINDER-2,2018-099B,2026-07-15T01:26:55.373568,15.14776742,.00084483,97.4238,244.4570,191.9909,168.1124,0,U,43759,999,41684,.11789942E-3,.2124E-4,0
CORVUS BC4,2018-099K,2026-07-15T08:52:07.642560,15.12703044,.00065072,97.4051,238.5262,260.1573,99.8924,0,U,43767,999,41666,.11076452E-3,.1876E-4,0
